[{"spaceTrack":{"CCSDS_OMM_VERS":"2.0","COMMENT":"GENERATED VIA SPACE-TRACK.ORG API","CREATION_DATE":"2021-05-12T04:44:40","ORIGINATOR":"18 SPCS","OBJECT_NAME":"STARLINK-2409","OBJECT_ID":"2021-018AP","CENTER_NAME":"EARTH","REF_FRAME":"TEME","TIME_SYSTEM":"UTC","MEAN_ELEMENT_THEORY":"SGP4","EPOCH":"2021-05-11T22:00:00.999936","MEAN_MOTION":15.2718196,"ECCENTRICITY":0.0001194,"INCLINATION":53.0465,"RA_OF_ASC_NODE":245.443,"ARG_OF_PERICENTER":78.4131,"MEAN_ANOMALY":237.0366,"EPHEMERIS_TYPE":0,"CLASSIFICATION_TYPE":"U","NORAD_CAT_ID":47824,"ELEMENT_SET_NO":999,"REV_AT_EPOCH":181,"BSTAR":-0.046851,"MEAN_MOTION_DOT":-0.01166653,"MEAN_MOTION_DDOT":0,"SEMIMAJOR_AXIS":6862.378,"PERIOD":94.291,"APOAPSIS":485.063,"PERIAPSIS":483.424,"OBJECT_TYPE":"PAYLOAD","RCS_SIZE":"LARGE","COUNTRY_CODE":"US","LAUNCH_DATE":"2021-03-11","SITE":"AFETR","DECAY_DATE":null,"DECAYED":0,"FILE":3035157,"GP_ID":177104786,"TLE_LINE0":"0 STARLINK-2409","TLE_LINE1":"1 47824U 21018AP  21131.91667824 -.01166653  00000-0 -46851-1 0  9993","TLE_LINE2":"2 47824  53.0465 245.4430 0001194  78.4131 237.0366 15.27181960  1818"},"version":"v1.0","launch":"600f9a718f798e2a4d5f979d","longitude":88.25299563255616,"latitude":-4.556345001159906,"height_km":492.08605055101543,"velocity_kms":7.619784541621202,"id":"6053aba67554c9000609a674"},{"spaceTrack":{"CCSDS_OMM_VERS":"2.0","COMMENT":"GENERATED VIA SPACE-TRACK.ORG API","CREATION_DATE":"2021-05-12T14:46:11","ORIGINATOR":"18 SPCS","OBJECT_NAME":"STARLINK-2432","OBJECT_ID":"2021-018BF","CENTER_NAME":"EARTH","REF_FRAME":"TEME","TIME_SYSTEM":"UTC","MEAN_ELEMENT_THEORY":"SGP4","EPOCH":"2021-05-12T14:00:01.000224","MEAN_MOTION":15.73445066,"ECCENTRICITY":0.0001899,"INCLINATION":53.0472,"RA_OF_ASC_NODE":238.774,"ARG_OF_PERICENTER":24.1299,"MEAN_ANOMALY":23.2409,"EPHEMERIS_TYPE":0,"CLASSIFICATION_TYPE":"U","NORAD_CAT_ID":47840,"ELEMENT_SET_NO":999,"REV_AT_EPOCH":1071,"BSTAR":-0.0052394,"MEAN_MOTION_DOT":-0.00686278,"MEAN_MOTION_DDOT":0,"SEMIMAJOR_AXIS":6727.197,"PERIOD":91.519,"APOAPSIS":350.339,"PERIAPSIS":347.784,"OBJECT_TYPE":"PAYLOAD","RCS_SIZE":"LARGE","COUNTRY_CODE":"US","LAUNCH_DATE":"2021-03-11","SITE":"AFETR","DECAY_DATE":null,"DECAYED":0,"FILE":3035551,"GP_ID":177114966,"TLE_LINE0":"0 STARLINK-2432","TLE_LINE1":"1 47840U 21018BF  21132.58334491 -.00686278  00000-0 -52394-2 0  9995","TLE_LINE2":"2 47840  53.0472 238.7740 0001899  24.1299  23.2409 15.73445066 10711"},"version":"v1.0","launch":"600f9a718f798e2a4d5f979d","longitude":127.8815760484621,"latitude":40.59075654854677,"height_km":352.4325194428193,"velocity_kms":7.703478042854128,"id":"6053aba67554c9000609a673"},{"spaceTrack":{"CCSDS_OMM_VERS":"2.0","COMMENT":"GENERATED VIA SPACE-TRACK.ORG API","CREATION_DATE":"2021-05-12T14:46:11","ORIGINATOR":"18 SPCS","OBJECT_NAME":"STARLINK-2394","OBJECT_ID":"2021-018AC","CENTER_NAME":"EARTH","REF_FRAME":"TEME","TIME_SYSTEM":"UTC","MEAN_ELEMENT_THEORY":"SGP4","EPOCH":"2021-05-12T14:00:01.000224","MEAN_MOTION":15.73387033,"ECCENTRICITY":0.0001454,"INCLINATION":53.0472,"RA_OF_ASC_NODE":238.7687,"ARG_OF_PERICENTER":21.9121,"MEAN_ANOMALY":28.645,"EPHEMERIS_TYPE":0,"CLASSIFICATION_TYPE":"U","NORAD_CAT_ID":47813,"ELEMENT_SET_NO":999,"REV_AT_EPOCH":1070,"BSTAR":-0.0046717,"MEAN_MOTION_DOT":-0.00615481,"MEAN_MOTION_DDOT":0,"SEMIMAJOR_AXIS":6727.362,"PERIOD":91.522,"APOAPSIS":350.205,"PERIAPSIS":348.249,"OBJECT_TYPE":"PAYLOAD","RCS_SIZE":"LARGE","COUNTRY_CODE":"US","LAUNCH_DATE":"2021-03-11","SITE":"AFETR","DECAY_DATE":null,"DECAYED":0,"FILE":3035534,"GP_ID":177114337,"TLE_LINE0":"0 STARLINK-2394","TLE_LINE1":"1 47813U 21018AC  21132.58334491 -.00615481  00000-0 -46717-2 0  9995","TLE_LINE2":"2 47813  53.0472 238.7687 0001454  21.9121  28.6450 15.73387033 10700"},"version":"v1.0","launch":"600f9a718f798e2a4d5f979d","longitude":131.19567102347278,"latitude":42.45044215240103,"height_km":353.2221085278352,"velocity_kms":7.70304385975843,"id":"6053aba67554c9000609a67b"},{"spaceTrack":{"CCSDS_OMM_VERS":"2.0","COMMENT":"GENERATED VIA SPACE-TRACK.ORG API","CREATION_DATE":"2021-05-12T07:16:17","ORIGINATOR":"18 SPCS","OBJECT_NAME":"STARLINK-2402","OBJECT_ID":"2021-018AJ","CENTER_NAME":"EARTH","REF_FRAME":"TEME","TIME_SYSTEM":"UTC","MEAN_ELEMENT_THEORY":"SGP4","EPOCH":"2021-05-12T06:00:00.999648","MEAN_MOTION":15.2744411,"ECCENTRICITY":0.0001446,"INCLINATION":53.0534,"RA_OF_ASC_NODE":243.9058,"ARG_OF_PERICENTER":55.4184,"MEAN_ANOMALY":19.2021,"EPHEMERIS_TYPE":0,"CLASSIFICATION_TYPE":"U","NORAD_CAT_ID":47819,"ELEMENT_SET_NO":999,"REV_AT_EPOCH":1061,"BSTAR":-0.046512,"MEAN_MOTION_DOT":-0.01167518,"MEAN_MOTION_DDOT":0,"SEMIMAJOR_AXIS":6861.593,"PERIOD":94.275,"APOAPSIS":484.45,"PERIAPSIS":482.466,"OBJECT_TYPE":"PAYLOAD","RCS_SIZE":"LARGE","COUNTRY_CODE":"US","LAUNCH_DATE":"2021-03-11","SITE":"AFETR","DECAY_DATE":null,"DECAYED":0,"FILE":3035278,"GP_ID":177109085,"TLE_LINE0":"0 STARLINK-2402","TLE_LINE1":"1 47819U 21018AJ  21132.25001157 -.01167518  00000-0 -46512-1 0  9991","TLE_LINE2":"2 47819  53.0534 243.9058 0001446  55.4184  19.2021 15.27444110 10616"},"version":"v1.0","launch":"600f9a718f798e2a4d5f979d","longitude":169.31249362579206,"latitude":52.55876590977426,"height_km":492.8186904100785,"velocity_kms":7.625338115884236,"id":"6053aba67554c9000609a679"},{"spaceTrack":{"CCSDS_OMM_VERS":"2.0","COMMENT":"GENERATED VIA SPACE-TRACK.ORG API","CREATION_DATE":"2021-05-12T04:44:40","ORIGINATOR":"18 SPCS","OBJECT_NAME":"STARLINK-2399","OBJECT_ID":"2021-018AF","CENTER_NAME":"EARTH","REF_FRAME":"TEME","TIME_SYSTEM":"UTC","MEAN_ELEMENT_THEORY":"SGP4","EPOCH":"2021-05-11T22:00:00.999936","MEAN_MOTION":15.2490745,"ECCENTRICITY":0.0001323,"INCLINATION":53.0445,"RA_OF_ASC_NODE":245.5268,"ARG_OF_PERICENTER":88.9702,"MEAN_ANOMALY":148.0372,"EPHEMERIS_TYPE":0,"CLASSIFICATION_TYPE":"U","NORAD_CAT_ID":47816,"ELEMENT_SET_NO":999,"REV_AT_EPOCH":180,"BSTAR":-0.045962,"MEAN_MOTION_DOT":-0.01061884,"MEAN_MOTION_DDOT":0,"SEMIMAJOR_AXIS":6869.2,"PERIOD":94.432,"APOAPSIS":491.974,"PERIAPSIS":490.157,"OBJECT_TYPE":"PAYLOAD","RCS_SIZE":"LARGE","COUNTRY_CODE":"US","LAUNCH_DATE":"2021-03-11","SITE":"AFETR","DECAY_DATE":null,"DECAYED":0,"FILE":3035157,"GP_ID":177104785,"TLE_LINE0":"0 STARLINK-2399","TLE_LINE1":"1 47816U 21018AF  21131.91667824 -.01061884  00000-0 -45962-1 0  9996","TLE_LINE2":"2 47816  53.0445 245.5268 0001323  88.9702 148.0372 15.24907450  1805"},"version":"v1.0","launch":"600f9a718f798e2a4d5f979d","longitude":0.48483776996062306,"latitude":-53.18928101784704,"height_km":516.276438097435,"velocity_kms":7.604752028437474,"id":"6053aba67554c9000609a678"},{"spaceTrack":{"CCSDS_OMM_VERS":"2.0","COMMENT":"GENERATED VIA SPACE-TRACK.ORG API","CREATION_DATE":"2021-05-12T07:16:17","ORIGINATOR":"18 SPCS","OBJECT_NAME":"STARLINK-2416","OBJECT_ID":"2021-018AU","CENTER_NAME":"EARTH","REF_FRAME":"TEME","TIME_SYSTEM":"UTC","MEAN_ELEMENT_THEORY":"SGP4","EPOCH":"2021-05-12T06:00:00.999648","MEAN_MOTION":15.06387534,"ECCENTRICITY":0.0001192,"INCLINATION":53.0524,"RA_OF_ASC_NODE":253.5116,"ARG_OF_PERICENTER":89.3132,"MEAN_ANOMALY":353.0917,"EPHEMERIS_TYPE":0,"CLASSIFICATION_TYPE":"U","NORAD_CAT_ID":47829,"ELEMENT_SET_NO":999,"REV_AT_EPOCH":1047,"BSTAR":0.0027596,"MEAN_MOTION_DOT":0.00041049,"MEAN_MOTION_DDOT":0,"SEMIMAJOR_AXIS":6925.387,"PERIOD":95.593,"APOAPSIS":548.077,"PERIAPSIS":546.426,"OBJECT_TYPE":"PAYLOAD","RCS_SIZE":"LARGE","COUNTRY_CODE":"US","LAUNCH_DATE":"2021-03-11","SITE":"AFETR","DECAY_DATE":null,"DECAYED":0,"FILE":3035282,"GP_ID":177109149,"TLE_LINE0":"0 STARLINK-2416","TLE_LINE1":"1 47829U 21018AU  21132.25001157  .00041049  00000-0  27596-2 0  9991","TLE_LINE2":"2 47829  53.0524 253.5116 0001192  89.3132 353.0917 15.06387534 10475"},"version":"v1.0","launch":"600f9a718f798e2a4d5f979d","longitude":138.626512312348,"latitude":38.99537889459215,"height_km":549.8572841600835,"velocity_kms":7.5922769876097345,"id":"6053aba67554c9000609a67c"},{"spaceTrack":{"CCSDS_OMM_VERS":"2.0","COMMENT":"GENERATED VIA SPACE-TRACK.ORG API","CREATION_DATE":"2021-05-12T04:44:40","ORIGINATOR":"18 SPCS","OBJECT_NAME":"STARLINK-2393","OBJECT_ID":"2021-018AB","CENTER_NAME":"EARTH","REF_FRAME":"TEME","TIME_SYSTEM":"UTC","MEAN_ELEMENT_THEORY":"SGP4","EPOCH":"2021-05-11T22:00:00.999936","MEAN_MOTION":15.06417311,"ECCENTRICITY":0.0001182,"INCLINATION":53.049,"RA_OF_ASC_NODE":255.0325,"ARG_OF_PERICENTER":78.8126,"MEAN_ANOMALY":334.9309,"EPHEMERIS_TYPE":0,"CLASSIFICATION_TYPE":"U","NORAD_CAT_ID":47812,"ELEMENT_SET_NO":999,"REV_AT_EPOCH":180,"BSTAR":-0.0011062,"MEAN_MOTION_DOT":-0.00016727,"MEAN_MOTION_DDOT":0,"SEMIMAJOR_AXIS":6925.296,"PERIOD":95.591,"APOAPSIS":547.979,"PERIAPSIS":546.342,"OBJECT_TYPE":"PAYLOAD","RCS_SIZE":"LARGE","COUNTRY_CODE":"US","LAUNCH_DATE":"2021-03-11","SITE":"AFETR","DECAY_DATE":null,"DECAYED":0,"FILE":3035157,"GP_ID":177104284,"TLE_LINE0":"0 STARLINK-2393","TLE_LINE1":"1 47812U 21018AB  21131.91667824 -.00016727  00000-0 -11062-2 0  9992","TLE_LINE2":"2 47812  53.0490 255.0325 0001182  78.8126 334.9309 15.06417311  1800"},"version":"v1.0","launch":"600f9a718f798e2a4d5f979d","longitude":121.70969516293961,"latitude":24.9112668329666,"height_km":547.6792196836805,"velocity_kms":7.591902290649289,"id":"6053aba67554c9000609a67e"}]